{
    "links": {
        "self": "http://www.neowsapp.com/rest/v1/neo/3791341?api_key=iIulBulltgU6a56xZRHN4H3l9WmuAYTsLGpBGhQ2"
    },
    "id": "3791341",
    "neo_reference_id": "3791341",
    "name": "(2017 XT60)",
    "designation": "2017 XT60",
    "nasa_jpl_url": "http://ssd.jpl.nasa.gov/sbdb.cgi?sstr=3791341",
    "absolute_magnitude_h": 27.4,
    "estimated_diameter": {
        "kilometers": {
            "estimated_diameter_min": 0.0088014652,
            "estimated_diameter_max": 0.0196806745
        },
        "meters": {
            "estimated_diameter_min": 8.801465209,
            "estimated_diameter_max": 19.6806745089
        },
        "miles": {
            "estimated_diameter_min": 0.0054689752,
            "estimated_diameter_max": 0.0122290004
        },
        "feet": {
            "estimated_diameter_min": 28.8761991163,
            "estimated_diameter_max": 64.5691441559
        }
    },
    "is_potentially_hazardous_asteroid": false,
    "close_approach_data": [
        {
            "close_approach_date": "2017-12-17",
            "close_approach_date_full": "2017-Dec-17 22:00",
            "epoch_date_close_approach": 1513548000000,
            "relative_velocity": {
                "kilometers_per_second": "7.0269231402",
                "kilometers_per_hour": "25296.9233048922",
                "miles_per_hour": "15718.5243724204"
            },
            "miss_distance": {
                "astronomical": "0.0203723551",
                "lunar": "7.9248461339",
                "kilometers": "3047660.929843637",
                "miles": "1893728.6884387106"
            },
            "orbiting_body": "Earth"
        }
    ],
    "orbital_data": {
        "orbit_id": "4",
        "orbit_determination_date": "2017-12-23 06:24:39",
        "first_observation_date": "2017-12-14",
        "last_observation_date": "2017-12-20",
        "data_arc_in_days": 6,
        "observations_used": 38,
        "orbit_uncertainty": "7",
        "minimum_orbit_intersection": ".0176388",
        "jupiter_tisserand_invariant": "3.651",
        "epoch_osculation": "2459000.5",
        "eccentricity": ".5062048219712811",
        "semi_major_axis": "2.015686605120638",
        "inclination": "4.889389584908277",
        "ascending_node_longitude": "261.1596649387395",
        "orbital_period": "1045.280723774874",
        "perihelion_distance": ".9953363260256495",
        "perihelion_argument": "194.3697500335511",
        "aphelion_distance": "3.036036884215627",
        "perihelion_time": "2459160.071238049388",
        "mean_anomaly": "305.0428536648763",
        "mean_motion": ".344405088328726",
        "equinox": "J2000",
        "orbit_class": {
            "orbit_class_type": "APO",
            "orbit_class_description": "Near-Earth asteroid orbits which cross the Earth’s orbit similar to that of 1862 Apollo",
            "orbit_class_range": "a (semi-major axis) > 1.0 AU; q (perihelion) < 1.017 AU"
        }
    },
    "is_sentry_object": false
}